BEIDOU-2 IGSO-1 (C06)   
1 36828U 10036A   25298.61681331 -.00000073  00000+0  00000+0 0  9991
2 36828  54.2770 165.0853 0050865 216.3039 341.1569  1.00290527 55746
BEIDOU-2 G4 (C04)       
1 37210U 10057A   25299.19141676 -.00000099  00000+0  00000+0 0  9995
2 37210   3.0621  70.0731 0009612 177.5975  16.0115  1.00273925 54949
BEIDOU-2 IGSO-2 (C07)   
1 37256U 10068A   25295.62146750 -.00000196  00000+0  00000+0 0  9997
2 37256  47.9774 274.7760 0047363 217.7614 226.5684  1.00248503 54417
BEIDOU-2 IGSO-3 (C08)   
1 37384U 11013A   25294.84420201 -.00000197  00000+0  00000+0 0  9990
2 37384  62.0755  42.4125 0036537 182.8028 216.6883  1.00283809 53275
BEIDOU-2 IGSO-4 (C09)   
1 37763U 11038A   25295.63865760 -.00000006  00000+0  00000+0 0  9998
2 37763  54.5748 167.8028 0146614 229.5223 315.8266  1.00292059 52264
BEIDOU-2 IGSO-5 (C10)   
1 37948U 11073A   25298.78730641 -.00000152  00000+0  00000+0 0  9992
2 37948  48.1108 274.4470 0109238 222.1679 275.2031  1.00257683 50787
BEIDOU-2 G5 (C05)       
1 38091U 12008A   25299.12903728  .00000070  00000+0  00000+0 0  9996
2 38091   2.9860  70.8540 0009513 221.5857 207.4793  1.00271557 50027
BEIDOU-2 M3 (C11)       
1 38250U 12018A   25295.85318325 -.00000064  00000+0  00000+0 0  9997
2 38250  55.9621 312.8685 0024746 269.6388  90.1107  1.86229967 91521
BEIDOU-2 M4 (C12)       
1 38251U 12018B   25297.39628494 -.00000055  00000+0  00000+0 0  9990
2 38251  55.8631 312.0498 0015881 270.4921  89.3549  1.86232287 91551
BEIDOU-2 M6 (C14)       
1 38775U 12050B   25297.10722026 -.00000026  00000+0  00000+0 0  9990
2 38775  56.3364  70.7135 0010474 353.5933   6.3747  1.86230993 88913
BEIDOU-2 G6 (C02)       
1 38953U 12059A   25298.99132328 -.00000163  00000+0  00000+0 0  9997
2 38953   3.8230  75.9665 0006429 301.2177  98.4158  1.00271489 47565
BEIDOU-3S IGSO-1S (C31) 
1 40549U 15019A   25297.52891953 -.00000131  00000+0  00000+0 0  9999
2 40549  49.6453 298.3029 0040504 197.6198 177.4401  1.00251575 38711
BEIDOU-3S M2S (C58)     
1 40748U 15037A   25297.06418168 -.00000057  00000+0  00000+0 0  9999
2 40748  55.0815 310.1693 0012940 260.3209  99.5588  1.86229379 69725
BEIDOU-3S M1S (C57)     
1 40749U 15037B   25296.76405626 -.00000058  00000+0  00000+0 0  9992
2 40749  55.0785 310.1697 0002999 350.7818   9.2393  1.86254118 69720
BEIDOU-3S IGSO-2S (C56) 
1 40938U 15053A   25294.84292536 -.00000154  00000+0  00000+0 0  9998
2 40938  49.5959 261.6191 0061422 189.7961 338.2620  1.00282517 36963
BEIDOU-2 IGSO-6 (C13)   
1 41434U 16021A   25295.80981249 -.00000162  00000+0  00000+0 0  9998
2 41434  59.8958  40.4104 0058188 229.0133 147.9034  1.00264164 35106
BEIDOU-2 G7 (C03)       
1 41586U 16037A   25298.99660998 -.00000341  00000+0  00000+0 0  9990
2 41586   1.6362  67.1381 0005665 338.6334  98.2160  1.00270392  4545
BEIDOU-3 M1 (C19)       
1 43001U 17069A   25298.48360991 -.00000013  00000+0  00000+0 0  9990
2 43001  56.4857  70.8286 0007393 307.6997  52.2188  1.86231321 54236
BEIDOU-3 M2 (C20)       
1 43002U 17069B   25297.34798666 -.00000024  00000+0  00000+0 0  9991
2 43002  56.4841  70.9017 0005411 346.5889  13.3787  1.86230874 54206
BEIDOU-3 M7 (C27)       
1 43107U 18003A   25297.62872304 -.00000055  00000+0  00000+0 0  9993
2 43107  54.5393 310.5230 0002279  86.4003 273.6515  1.86232616 52967
BEIDOU-3 M8 (C28)       
1 43108U 18003B   25299.18408417 -.00000043  00000+0  00000+0 0  9994
2 43108  54.5309 310.4519 0005007 264.4592  95.5091  1.86231084 53001
BEIDOU-3 M4 (C22)       
1 43207U 18018A   25298.55184628 -.00000013  00000+0  00000+0 0  9992
2 43207  56.4447  70.8984 0004439  34.3940 325.6204  1.86231246 52379
BEIDOU-3 M3 (C21)       
1 43208U 18018B   25298.61840698 -.00000012  00000+0  00000+0 0  9995
2 43208  56.4445  70.9002 0005095 327.1425  32.8118  1.86231349 52375
BEIDOU-3 M9 (C29)       
1 43245U 18029A   25297.76052579 -.00000051  00000+0  00000+0 0  9999
2 43245  54.4093 308.1765 0002167 255.1396 104.8582  1.86232976 51516
BEIDOU-3 M10 (C30)      
1 43246U 18029B   25298.23265859 -.00000048  00000+0  00000+0 0  9996
2 43246  54.4063 308.1869 0003258 354.2754   5.7427  1.86229212 51505
BEIDOU-2 IGSO-7 (C16)   
1 43539U 18057A   25298.59856824 -.00000080  00000+0  00000+0 0  9995
2 43539  55.1686 165.0946 0091806 235.6432 321.5235  1.00272033 26778
BEIDOU-3 M5 (C23)       
1 43581U 18062A   25298.99444531  .00000023  00000+0  00000+0 0  9996
2 43581  54.0904 190.2684 0002855 323.2431  36.8226  1.86228829 49278
BEIDOU-3 M6 (C24)       
1 43582U 18062B   25298.85778970  .00000023  00000+0  00000+0 0  9999
2 43582  54.0901 190.2621 0006950  36.2682 323.8643  1.86229935 49277
BEIDOU-3 M12 (C26)      
1 43602U 18067A   25296.64724316  .00000032  00000+0  00000+0 0  9997
2 43602  54.1842 189.0634 0008670  35.0726 325.0702  1.86227770 48715
BEIDOU-3 M11 (C25)      
1 43603U 18067B   25298.92947094  .00000024  00000+0  00000+0 0  9992
2 43603  54.1813 188.9502 0005255  28.9976 331.1185  1.86227219 48788
BEIDOU-3 M13 (C32)      
1 43622U 18072A   25298.88636387 -.00000011  00000+0  00000+0 0  9991
2 43622  56.4177  70.4043 0004262 306.1157  53.8319  1.86231084 48299
BEIDOU-3 M14 (C33)      
1 43623U 18072B   25298.75183220 -.00000012  00000+0  00000+0 0  9992
2 43623  56.4201  70.4026 0002601   4.9213 355.0678  1.86231086 48286
BEIDOU-3 M16 (C35)      
1 43647U 18078A   25297.29950454 -.00000055  00000+0  00000+0 0  9990
2 43647  54.3062 308.2498 0006200  17.7378 342.3061  1.86232431 47764
BEIDOU-3 M15 (C34)      
1 43648U 18078B   25299.03953963 -.00000042  00000+0  00000+0 0  9999
2 43648  54.3003 308.1901 0002789  16.6455 343.3857  1.86232360 47811
BEIDOU-3 G1 (C59)       
1 43683U 18085A   25299.21650884 -.00000265  00000+0  00000+0 0  9999
2 43683   2.9841 103.9274 0002904  12.3306 136.5264  1.00267164 25715
BEIDOU-3 M17 (C36)      
1 43706U 18093A   25298.93864250  .00000023  00000+0  00000+0 0  9997
2 43706  54.1739 190.2452 0007454 301.5474 245.0422  1.86228418 47176
BEIDOU-3 M18 (C37)      
1 43707U 18093B   25299.05856935  .00000023  00000+0  00000+0 0  9993
2 43707  54.1745 190.2328 0006881 339.3760  20.6815  1.86230098 47176
BEIDOU-3 IGSO-1 (C38)   
1 44204U 19023A   25298.79195340 -.00000213  00000+0  00000+0 0  9998
2 44204  58.3668  40.0748 0026513 218.6264 178.0873  1.00259347  4864
BEIDOU-2 G8 (C01)       
1 44231U 19027A   25299.21737551 -.00000236  00000+0  00000+0 0  9991
2 44231   1.5370  74.5152 0007363 256.7371 286.2949  1.00267437 23731
BEIDOU-3 IGSO-2 (C39)   
1 44337U 19035A   25298.57761094 -.00000081  00000+0  00000+0 0  9992
2 44337  55.2158 160.9267 0037243 202.4013 357.4823  1.00286560 23310
BEIDOU-3 M24 (C46)      
1 44542U 19061A   25298.05619706  .00000027  00000+0  00000+0 0  9993
2 44542  54.4013 190.6596 0009221  15.2716 344.8415  1.86229469 41416
BEIDOU-3 M23 (C45)      
1 44543U 19061B   25298.45739420  .00000025  00000+0  00000+0 0  9992
2 44543  54.3990 190.6145 0006558  25.9781 155.9110  1.86229590 41429
BEIDOU-3 IGSO-3 (C40)   
1 44709U 19073A   25298.36592671 -.00000175  00000+0  00000+0 0  9991
2 44709  55.2074 283.4369 0045121 191.9450 167.8965  1.00258242 22107
BEIDOU-3 M22 (C44)      
1 44793U 19078A   25298.97069858 -.00000043  00000+0  00000+0 0  9996
2 44793  54.1511 308.0624 0004874  22.6667 337.3765  1.86232203 40286
BEIDOU-3 M21 (C43)      
1 44794U 19078B   25299.10727420 -.00000042  00000+0  00000+0 0  9998
2 44794  54.1244 308.0235 0003087   7.4621 352.5642  1.86227870 40292
BEIDOU-3 M19 (C41)      
1 44864U 19090A   25299.08371039 -.00000009  00000+0  00000+0 0  9991
2 44864  56.3524  70.5420 0016175 284.5981 254.9559  1.86231609 39870
BEIDOU-3 M20 (C42)      
1 44865U 19090B   25298.95058976 -.00000010  00000+0  00000+0 0  9991
2 44865  56.3536  70.5805 0013379 298.8010 241.1191  1.86231587 39858
BEIDOU-3 G2 (C60)       
1 45344U 20017A   25299.13328397 -.00000128  00000+0  00000+0 0  9993
2 45344   2.9092  42.8422 0002714 261.1729 218.7846  1.00271682 20913
BEIDOU-3 G3 (C61)       
1 45807U 20040A   25298.93900131 -.00000341  00000+0  00000+0 0  9999
2 45807   1.8711  66.0738 0004558 316.1073 100.9537  1.00276800 19725
BEIDOU-3 G4 (C62)       
1 56564U 23066A   25299.19141676 -.00000100  00000+0  00000+0 0  9995
2 56564   0.9246 298.4390 0004719 219.6921 105.5970  1.00273491  9042
BEIDOU-3 M28 (C50)      
1 58654U 23207A   25298.64883736 -.00000015  00000+0  00000+0 0  9998
2 58654  55.5430  70.2290 0000628 232.3466 127.6342  1.86229865 12470
BEIDOU-3 M26 (C48)      
1 58655U 23207B   25298.98382940 -.00000012  00000+0  00000+0 0  9994
2 58655  55.5452  70.2038 0002198 231.6489 128.3191  1.86231444 12461
BEIDOU-3 M25 (C47)      
1 61186U 24168B   25297.47397979 -.00000055  00000+0  00000+0 0  9992
2 61186  54.6849 310.4279 0005446 285.7261 259.0373  1.86230362  7395
BEIDOU-3 M27 (C49)      
1 61187U 24168C   25299.16928726 -.00000043  00000+0  00000+0 0  9998
2 61187  54.6791 310.3531 0001871 312.2770  64.0199  1.86230436  4907
